# Made by eph2tle, compiled Jun 28 2023 10:06:02
# Run at Tue Jul  4 11:00:03 2023
#
#    The following TLEs (Two-Line Elements) were generated by fitting
# a numerically-integrated ephemeris,  based on the orbit given below,
# to the SDP4/SGP4 models.  Each TLE is good for the interval between
# its epoch and the epoch of the subsequent TLE (usually one day).
# The maximum deviation between the numerically integrated ephemerides
# and the TLE-based ephemeris, in kilometers,  is given for each TLE
# as the "worst residual".
#
#    This fitting is done using the 'eph2tle' code packaged with Find_Orb.
# The code has details on how the TLEs were computed :
#
#    https://github.com/Bill-Gray/find_orb/eph2tle.cpp
#
#    Be warned:  the error given is that between the numerically
# integrated ephems and the TLE model.  There will usually be at
# least some additional difference between the ephems and the actual
# motion of the satellite,  especially if the ephemerides are based
# on a short arc.  If the following orbital elements say something
# like "[based on] 10 observations 2015 Jan. 1-13",  and the TLEs
# are for 2015 May,  the extrapolation may be tenuous at best.  If
# your application requires a specific level of accuracy,  you may
# want to contact me;  I can give you some idea as to the fit of the
# underlying data (and possibly TLEs based on newer data).
#
#   You can usually find the underlying observational data,  and the
# fitted orbit,  residuals,  ephemerides,  and sometimes some comments
# about the object,  among the pages listed at
#
#    https://www.projectpluto.com/pluto/mpecs/pseudo.htm
#
#    WARNING:  for this object,  "normal" TLEs cannot be fitted.  (This
# usually means an object with an hyperbolic or nearly-parabolic orbit.)
# For this and similar cases,   an alternative model is used,  in which
# most of the traditional TLE data is replaced by six signed 8-digit hex
# numbers.  These six numbers are a state vector,  numerically integrated
# using a simplified force model.  This is necessary for objects at L2 or
# L1,  and sometimes for objects in high orbits where the SDP4/SGP4 model
# fails.  Some documentation is in 'get_el.cpp' in the source code at
# https://www.github.com/Bill-Gray/sat_code ; look for 'hex' in that file,
# with the actual integration done in 'sdp4.cpp'.  But be aware:  it's my
# own extension,  doesn't work with other code,  and is therefore used
# only when necessary.
#
#    Also,  if you use a TLE outside the "correct" time range (between
# its MJD and that of the next TLE),  all bets are off.  I've carefully
# computed and minimized the worst error over the "correct" time frame,
# but the ephemeris may (or may not) diverge wildly outside of it.
#
# Ephem range: 60127.000000 60249.000000 1.000000
# Created Tue Jul  4 10:59:47 2023
# Ephemeris start:  2 Jul 2023  0:00:00
# Ephemeris end:    1 Nov 2023  0:00:00
# Times are all TDT
# Positions/velocities are in equatorial J2000
# Orbital elements:  EuclidA
#    Perigee 2023 Jul 1.6501672 +/- 6.15e-6 TT = 15:36:14.44 (JD 2460127.1501672)
# Epoch 2023 Jul  3.0 TT = JDT 2460128.5                           Find_Orb
# M   7.8409345244 +/- 0.0025         (J2000 equator)
# n   5.8088189184 +/- 0.00195        Peri.  179.3486193 +/- 0.0007
# a661522.99840 +/- 148               Node   294.7217510 +/- 0.00006
# e   0.990516099 +/- 1.67e-6         Incl.   36.2366679 +/- 0.00017
# P  61.97d                  H 29.07  G  0.15   U  8.5
# q 6273.8183694 +/- 0.312    Q 0.0088020783 +/- 1.98e-6
# 26 of 34 observations 2023 July 1-3; mean residual 0".184
# LAUNCH at   1 Jul 2023 15:38:01.72 lat -10.20204 lon W24.93523
#
# 1 NoradU COSPAR   Epoch.epoch     dn/dt/2  d2n/dt2/6 BSTAR    T El# C
# 2 NoradU Inclina RAAscNode Eccent  ArgPeri MeanAno  MeanMotion Rev# C

# Worst residual: 1.26 km
# MJD 60127.000000 (2023 Jul  2  0:00)
EuclidA
1 57217U 23092A   23182.99919926 +0002QTVT -001R3POZ -000HWX9QH 20110
2 57217                          +0003VGBB -000EOC3R -0001Y8TO     01

# Worst residual: 5.80 km
# MJD 60128.000000 (2023 Jul  3  0:00)
EuclidA
1 57217U 23092A   23183.99919926 +000WI7NH -004BPUV4 -000QNGQCH 20111
2 57217                          +00032TKF -0008JTP9 -0000LLY6     04

# Worst residual: 2.14 km
# MJD 60129.000000 (2023 Jul  4  0:00)
EuclidA
1 57217U 23092A   23184.99919926 +001L07YH -0064MVTC -000V1J43H 20113
2 57217                          +0002MYZI -0006O8D7 -0000GLZU     09

# Worst residual: 1.05 km
# MJD 60130.000000 (2023 Jul  5  0:00)
EuclidA
1 57217U 23092A   23185.99919926 +0026KHPG -007L45YX -000YO7CZH 20119
2 57217                          +0002D7KQ -0005K5EB -0000DJA6     01

# Worst residual: 1.00 km
# MJD 60131.000000 (2023 Jul  6  0:00)
EuclidA
1 57217U 23092A   23186.99919926 +002Q2EN4 -008TR2B6 -0011KO48H 20117
2 57217                          +00025IML -0004TCOU -0000AS5C     02

# Worst residual: 0.62 km
# MJD 60132.000000 (2023 Jul  7  0:00)
EuclidA
1 57217U 23092A   23187.99919926 +0037VK33 -009WVNWW -0013WREAH 20119
2 57217                          +0001Z2CE -00049LGR -00008SRR     00

# Worst residual: 0.79 km
# MJD 60133.000000 (2023 Jul  8  0:00)
EuclidA
1 57217U 23092A   23188.99919926 +003O8YN7 -00AVTG4N -0015UFPFH 20119
2 57217                          +0001THTY -0003U4S0 -00007EY1     02

# Worst residual: 0.94 km
# MJD 60134.000000 (2023 Jul  9  0:00)
EuclidA
1 57217U 23092A   23189.99919926 +0043DAP9 -00BREW5I -0017I6CZH 20117
2 57217                          +0001OLUX -0003HKIV -00006H8L     04

# Worst residual: 1.02 km
# MJD 60135.000000 (2023 Jul 10  0:00)
EuclidA
1 57217U 23092A   23190.99919926 +004HDWF2 -00CK9AQH -0018ZDIXH 20118
2 57217                          +0001KA6P -000373OM -00005VX5     06

# Worst residual: 1.03 km
# MJD 60136.000000 (2023 Jul 11  0:00)
EuclidA
1 57217U 23092A   23191.99919926 +004UFAYN -00DASE0H -001ACO71H 20118
2 57217                          +0001GG6B -0002Y7QK -00005KC8     05

# Worst residual: 0.97 km
# MJD 60137.000000 (2023 Jul 12  0:00)
EuclidA
1 57217U 23092A   23192.99919926 +0056LISO -00DZC7KI -001BO5H8H 20118
2 57217                          +0001D21N -0002QJZX -00005GHQ     07

# Worst residual: 0.90 km
# MJD 60138.000000 (2023 Jul 13  0:00)
EuclidA
1 57217U 23092A   23193.99919926 +005I075A -00EM67R9 -001CZH3OH 20110
2 57217                          +0001A2H8 -0002JVAJ -00005ISF     04

# Worst residual: 0.90 km
# MJD 60139.000000 (2023 Jul 14  0:00)
EuclidA
1 57217U 23092A   23194.99919926 +005SQP2Z -00F7HY46 -001EBYBYH 20113
2 57217                          +00017GEJ -0002DYPP -00005PX8     09

# Worst residual: 0.87 km
# MJD 60140.000000 (2023 Jul 15  0:00)
EuclidA
1 57217U 23092A   23195.99919926 +0062W52K -00FRHHHU -001FQM11H 20117
2 57217                          +000156VF -00028OVT -000060S7     01

# Worst residual: 0.81 km
# MJD 60141.000000 (2023 Jul 16  0:00)
EuclidA
1 57217U 23092A   23196.99919926 +006CJFM5 -00GA9R8X -001H886AH 20111
2 57217                          +000138ZQ -00023XIF -00006EF0     09

# Worst residual: 0.71 km
# MJD 60142.000000 (2023 Jul 17  0:00)
EuclidA
1 57217U 23092A   23197.99919926 +006LR9K9 -00GRYR9C -001ITD1YH 20116
2 57217                          +00011LVO -0001ZL3R -00006TZP     08

# Worst residual: 0.62 km
# MJD 60143.000000 (2023 Jul 18  0:00)
EuclidA
1 57217U 23092A   23198.99919926 +006UM42Z -00H8NQ07 -001KIE8SH 20118
2 57217                          +000108MY -0001VKS8 -00007AS8     09

# Worst residual: 0.56 km
# MJD 60144.000000 (2023 Jul 19  0:00)
EuclidA
1 57217U 23092A   23199.99919926 +007368I5 -00HOF99U -001MBJHCH 20111
2 57217                          +0000Z4CH -0001RU5S -00007S5Y     08

# Worst residual: 0.56 km
# MJD 60145.000000 (2023 Jul 20  0:00)
EuclidA
1 57217U 23092A   23200.99919926 +007BHO43 -00I3BFYS -001O8VGIH 20112
2 57217                          +0000Y82D -0001OB8L -000089LF     02

# Worst residual: 0.60 km
# MJD 60146.000000 (2023 Jul 21  0:00)
EuclidA
1 57217U 23092A   23201.99919926 +007JM801 -00IHDX7U -001QACJOH 20111
2 57217                          +0000XIU8 -0001KYCO -00008QM1     04

# Worst residual: 0.64 km
# MJD 60147.000000 (2023 Jul 22  0:00)
EuclidA
1 57217U 23092A   23202.99919926 +007RLGXL -00IUNYYX -001SFTGBH 20116
2 57217                          +0000WZP5 -0001HQ3T -000096TS     00

# Worst residual: 0.63 km
# MJD 60148.000000 (2023 Jul 23  0:00)
EuclidA
1 57217U 23092A   23203.99919926 +007ZGR9K -00J76K3U -001UP1T0H 20113
2 57217                          +0000WLNV -0001ELBU -00009LWZ     06

# Worst residual: 0.55 km
# MJD 60149.000000 (2023 Jul 24  0:00)
EuclidA
1 57217U 23092A   23204.99919926 +008796SZ -00JIYE8F -001X1QNYH 20110
2 57217                          +0000WBQD -0001BJ1F -00009ZLX     07

# Worst residual: 0.43 km
# MJD 60150.000000 (2023 Jul 25  0:00)
EuclidA
1 57217U 23092A   23205.99919926 +008EZMKE -00JTZZ7D -001ZHJ04H 20111
2 57217                          +0000W4VA -00018IF7 -0000ABOV     06

# Worst residual: 0.37 km
# MJD 60151.000000 (2023 Jul 26  0:00)
EuclidA
1 57217U 23092A   23206.99919926 +008MOODI -00K4BMJM -0022006DH 20114
2 57217                          +0000VZZ9 -00015ITU -0000AM06     07

# Worst residual: 0.32 km
# MJD 60152.000000 (2023 Jul 27  0:00)
EuclidA
1 57217U 23092A   23207.99919926 +008UCOB2 -00KDXIYD -0024KQI7H 20116
2 57217                          +0000VVWE -00012JSP -0000AUGY     09

# Worst residual: 0.44 km
# MJD 60153.000000 (2023 Jul 28  0:00)
EuclidA
1 57217U 23092A   23208.99919926 +0091ZO3W -00KMTS4D -00277A0YH 20117
2 57217                          +0000VREM -0000ZL3O -0000B13Z     03

# Worst residual: 0.63 km
# MJD 60154.000000 (2023 Jul 29  0:00)
EuclidA
1 57217U 23092A   23209.99919926 +0099LEUC -00KV0H2B -0029V7JHH 20113
2 57217                          +0000VL9I -0000WMTU -0000B632     06

